QIANFAN-49              
1 62250U 24232P   25328.10189380  .00000158  00000+0  22656-3 0  9995
2 62250  89.0041  43.1135 0012713 243.6510 116.3336 13.50973189 65326
QIANFAN-50              
1 62251U 24232Q   25328.12658000  .00000196  00000+0  28455-3 0  9993
2 62251  89.0047  43.1181 0014349 245.7127 114.2525 13.50974713 65352
QIANFAN-51              
1 62252U 24232R   25328.11012667  .00000187  00000+0  27121-3 0  9995
2 62252  89.0041  43.1148 0011750 248.9459 111.0436 13.50973046 65349
QIANFAN-52              
1 62253U 24232S   25327.99080847  .00000184  00000+0  26606-3 0  9990
2 62253  89.0037  43.0012 0013917 241.5335 118.4415 13.50978406 65414
QIANFAN-53              
1 62254U 24232T   25328.11834911  .00000175  00000+0  25193-3 0  9995
2 62254  89.0045  43.0914 0012785 241.8273 118.1587 13.50973504 65399
QIANFAN-54              
1 62255U 24232U   25328.01141256  .00000186  00000+0  26906-3 0  9993
2 62255  89.0036  42.7824 0000177 320.5514  39.5624 13.50973649 96887
QIANFAN-55              
1 62785U 25016A   25328.03764921  .00000121  00000+0  16875-3 0  9997
2 62785  88.9766 105.1387 0018242  46.9955 313.2721 13.50981622 44660
QIANFAN-56              
1 62786U 25016B   25327.97987644  .00000113  00000+0  15622-3 0  9999
2 62786  88.9740 104.9861 0016957  49.7841 310.4791 13.50982375 44700
